{
  "norad_id": 66071,
  "name": "STARLINK-35323",
  "history": [
    {
      "epoch": "2026-03-28T11:44:29.508288Z",
      "apogee_km": 476.2516096598574,
      "perigee_km": 474.149142819575,
      "latitude_deg": -3.006108769537768e-05,
      "longitude_deg": 155.6383831298471,
      "height_km": 476.0642868813636,
      "semi_major_axis_km": 6853.337376239716,
      "eccentricity": 0.00015339,
      "inclination_deg": 53.1583,
      "raan_deg": 157.6703,
      "arg_perigee_deg": 88.1671,
      "mean_anomaly_deg": 271.9505,
      "mean_motion_rev_day": 15.30204921
    }
  ]
}